STARLINK-5474           
1 55665U 23021AP  25358.70554174  .00001236  00000+0  11134-3 0  9995
2 55665  70.0010 353.4782 0002976 278.6136  81.4686 14.98322876158058
STARLINK-5456           
1 55667U 23021AR  25358.69301318  .00000083  00000+0  14785-4 0  9990
2 55667  70.0002 353.4349 0003041 272.1058  87.9753 14.98332281158053
STARLINK-5455           
1 55668U 23021AS  25358.72223624 -.00000905  00000+0 -68018-4 0  9991
2 55668  70.0007 353.5355 0003255 274.6296  85.4491 14.98337467158047
STARLINK-5459           
1 55669U 23021AT  25358.04628292  .00001417  00000+0  12654-3 0  9998
2 55669  70.0019 355.1917 0003421 262.6132  97.4638 14.98320765157941
STARLINK-5423           
1 55670U 23021AU  25358.70153261 -.00009552  00000+0 -79586-3 0  9999
2 55670  69.9997 353.4625 0004528 257.3172 102.7481 14.98226417158054
STARLINK-5460           
1 55671U 23021AV  25358.41364142  .00000298  00000+0  32788-4 0  9990
2 55671  70.0002 354.4553 0003049 272.9918  87.0892 14.98332029158007
STARLINK-5463           
1 55673U 23021AX  25358.36338796  .00000408  00000+0  42003-4 0  9996
2 55673  70.0001 354.2890 0003049 270.4363  89.6446 14.98333330158006
STARLINK-5462           
1 55674U 23021AY  25358.68884368  .00003327  00000+0  28638-3 0  9993
2 55674  70.0024 353.4156 0002916 278.0266  82.0563 14.98348683158055
STARLINK-5232           
1 55675U 23021AZ  25358.41345451 -.00000122  00000+0 -24503-5 0  9991
2 55675  70.0001 354.0643 0003052 269.8122  90.2687 14.98329989158012
STARLINK-5300           
1 55676U 23021BA  25358.66668981 -.00006165  00000+0 -50922-3 0  9990
2 55676  70.0021 333.6520 0003043 271.6689 284.1571 14.98342311  5775
STARLINK-5324           
1 55677U 23021BB  25358.68444445 -.00000546  00000+0 -37940-4 0  9993
2 55677  70.0003 333.5278 0003277 274.6301  85.4483 14.98328169158541
STARLINK-5592           
1 55741U 23028A   25358.62719389  .00000482  00000+0  48167-4 0  9998
2 55741  70.0003  73.8334 0003207 266.5812  93.4980 14.98334629154983
STARLINK-5594           
1 55742U 23028B   25358.63136773  .00000684  00000+0  65121-4 0  9993
2 55742  69.9999  73.8474 0003370 268.7611  91.3162 14.98331179154797
STARLINK-5602           
1 55743U 23028C   25358.63556392  .00001957  00000+0  17187-3 0  9999
2 55743  70.0008  73.8623 0002856 272.1986  87.8846 14.98308546154791
STARLINK-5601           
1 55744U 23028D   25358.63153233  .00000361  00000+0  38047-4 0  9994
2 55744  69.9997  73.8473 0003250 268.8202  91.2584 14.98334888154797
STARLINK-5579           
1 55746U 23028F   25358.66890846 -.00000086  00000+0  61556-6 0  9995
2 55746  69.9995  73.5765 0003399 268.8519  91.2250 14.98333967154802
