[{"OBJECT_NAME":"STARLINK-5474","OBJECT_ID":"2023-021AP","EPOCH":"2025-12-24T16:55:58.806336","MEAN_MOTION":14.98322876,"ECCENTRICITY":0.00029761,"INCLINATION":70.001,"RA_OF_ASC_NODE":353.4782,"ARG_OF_PERICENTER":278.6136,"MEAN_ANOMALY":81.4686,"EPHEMERIS_TYPE":0,"CLASSIFICATION_TYPE":"U","NORAD_CAT_ID":55665,"ELEMENT_SET_NO":999,"REV_AT_EPOCH":15805,"BSTAR":0.00011134398,"MEAN_MOTION_DOT":1.236e-5,"MEAN_MOTION_DDOT":0},{"OBJECT_NAME":"STARLINK-5456","OBJECT_ID":"2023-021AR","EPOCH":"2025-12-24T16:37:56.338752","MEAN_MOTION":14.98332281,"ECCENTRICITY":0.00030419,"INCLINATION":70.0002,"RA_OF_ASC_NODE":353.4349,"ARG_OF_PERICENTER":272.1058,"MEAN_ANOMALY":87.9753,"EPHEMERIS_TYPE":0,"CLASSIFICATION_TYPE":"U","NORAD_CAT_ID":55667,"ELEMENT_SET_NO":999,"REV_AT_EPOCH":15805,"BSTAR":1.4785338e-5,"MEAN_MOTION_DOT":8.3e-7,"MEAN_MOTION_DDOT":0},{"OBJECT_NAME":"STARLINK-5455","OBJECT_ID":"2023-021AS","EPOCH":"2025-12-24T17:20:01.211136","MEAN_MOTION":14.98337467,"ECCENTRICITY":0.00032551,"INCLINATION":70.0007,"RA_OF_ASC_NODE":353.5355,"ARG_OF_PERICENTER":274.6296,"MEAN_ANOMALY":85.4491,"EPHEMERIS_TYPE":0,"CLASSIFICATION_TYPE":"U","NORAD_CAT_ID":55668,"ELEMENT_SET_NO":999,"REV_AT_EPOCH":15804,"BSTAR":-6.8018296e-5,"MEAN_MOTION_DOT":-9.05e-6,"MEAN_MOTION_DDOT":0},{"OBJECT_NAME":"STARLINK-5459","OBJECT_ID":"2023-021AT","EPOCH":"2025-12-24T01:06:38.844288","MEAN_MOTION":14.98320765,"ECCENTRICITY":0.00034218,"INCLINATION":70.0019,"RA_OF_ASC_NODE":355.1917,"ARG_OF_PERICENTER":262.6132,"MEAN_ANOMALY":97.4638,"EPHEMERIS_TYPE":0,"CLASSIFICATION_TYPE":"U","NORAD_CAT_ID":55669,"ELEMENT_SET_NO":999,"REV_AT_EPOCH":15794,"BSTAR":0.00012654302,"MEAN_MOTION_DOT":1.417e-5,"MEAN_MOTION_DDOT":0},{"OBJECT_NAME":"STARLINK-5423","OBJECT_ID":"2023-021AU","EPOCH":"2025-12-24T16:50:12.417504","MEAN_MOTION":14.98226417,"ECCENTRICITY":0.00045285,"INCLINATION":69.9997,"RA_OF_ASC_NODE":353.4625,"ARG_OF_PERICENTER":257.3172,"MEAN_ANOMALY":102.7481,"EPHEMERIS_TYPE":0,"CLASSIFICATION_TYPE":"U","NORAD_CAT_ID":55670,"ELEMENT_SET_NO":999,"REV_AT_EPOCH":15805,"BSTAR":-0.00079585894,"MEAN_MOTION_DOT":-9.552e-5,"MEAN_MOTION_DDOT":0},{"OBJECT_NAME":"STARLINK-5460","OBJECT_ID":"2023-021AV","EPOCH":"2025-12-24T09:55:38.618688","MEAN_MOTION":14.98332029,"ECCENTRICITY":0.00030497,"INCLINATION":70.0002,"RA_OF_ASC_NODE":354.4553,"ARG_OF_PERICENTER":272.9918,"MEAN_ANOMALY":87.0892,"EPHEMERIS_TYPE":0,"CLASSIFICATION_TYPE":"U","NORAD_CAT_ID":55671,"ELEMENT_SET_NO":999,"REV_AT_EPOCH":15800,"BSTAR":3.2788414e-5,"MEAN_MOTION_DOT":2.98e-6,"MEAN_MOTION_DDOT":0},{"OBJECT_NAME":"STARLINK-5463","OBJECT_ID":"2023-021AX","EPOCH":"2025-12-24T08:43:16.719744","MEAN_MOTION":14.9833333,"ECCENTRICITY":0.0003049,"INCLINATION":70.0001,"RA_OF_ASC_NODE":354.289,"ARG_OF_PERICENTER":270.4363,"MEAN_ANOMALY":89.6446,"EPHEMERIS_TYPE":0,"CLASSIFICATION_TYPE":"U","NORAD_CAT_ID":55673,"ELEMENT_SET_NO":999,"REV_AT_EPOCH":15800,"BSTAR":4.20032e-5,"MEAN_MOTION_DOT":4.08e-6,"MEAN_MOTION_DDOT":0},{"OBJECT_NAME":"STARLINK-5462","OBJECT_ID":"2023-021AY","EPOCH":"2025-12-24T16:31:56.093952","MEAN_MOTION":14.98348683,"ECCENTRICITY":0.0002916,"INCLINATION":70.0024,"RA_OF_ASC_NODE":353.4156,"ARG_OF_PERICENTER":278.0266,"MEAN_ANOMALY":82.0563,"EPHEMERIS_TYPE":0,"CLASSIFICATION_TYPE":"U","NORAD_CAT_ID":55674,"ELEMENT_SET_NO":999,"REV_AT_EPOCH":15805,"BSTAR":0.00028637647,"MEAN_MOTION_DOT":3.327e-5,"MEAN_MOTION_DDOT":0},{"OBJECT_NAME":"STARLINK-5232","OBJECT_ID":"2023-021AZ","EPOCH":"2025-12-24T09:55:22.469664","MEAN_MOTION":14.98329989,"ECCENTRICITY":0.00030524,"INCLINATION":70.0001,"RA_OF_ASC_NODE":354.0643,"ARG_OF_PERICENTER":269.8122,"MEAN_ANOMALY":90.2687,"EPHEMERIS_TYPE":0,"CLASSIFICATION_TYPE":"U","NORAD_CAT_ID":55675,"ELEMENT_SET_NO":999,"REV_AT_EPOCH":15801,"BSTAR":-2.450338e-6,"MEAN_MOTION_DOT":-1.22e-6,"MEAN_MOTION_DDOT":0},{"OBJECT_NAME":"STARLINK-5300","OBJECT_ID":"2023-021BA","EPOCH":"2025-12-24T16:00:01.999584","MEAN_MOTION":14.98342311,"ECCENTRICITY":0.00030437,"INCLINATION":70.0021,"RA_OF_ASC_NODE":333.652,"ARG_OF_PERICENTER":271.6689,"MEAN_ANOMALY":284.1571,"EPHEMERIS_TYPE":0,"CLASSIFICATION_TYPE":"U","NORAD_CAT_ID":55676,"ELEMENT_SET_NO":999,"REV_AT_EPOCH":577,"BSTAR":-0.00050921709,"MEAN_MOTION_DOT":-6.165e-5,"MEAN_MOTION_DDOT":0},{"OBJECT_NAME":"STARLINK-5324","OBJECT_ID":"2023-021BB","EPOCH":"2025-12-24T16:25:36.000480","MEAN_MOTION":14.98328169,"ECCENTRICITY":0.00032779,"INCLINATION":70.0003,"RA_OF_ASC_NODE":333.5278,"ARG_OF_PERICENTER":274.6301,"MEAN_ANOMALY":85.4483,"EPHEMERIS_TYPE":0,"CLASSIFICATION_TYPE":"U","NORAD_CAT_ID":55677,"ELEMENT_SET_NO":999,"REV_AT_EPOCH":15854,"BSTAR":-3.794024e-5,"MEAN_MOTION_DOT":-5.46e-6,"MEAN_MOTION_DDOT":0},{"OBJECT_NAME":"STARLINK-5592","OBJECT_ID":"2023-028A","EPOCH":"2025-12-24T15:03:09.552096","MEAN_MOTION":14.98334629,"ECCENTRICITY":0.00032077,"INCLINATION":70.0003,"RA_OF_ASC_NODE":73.8334,"ARG_OF_PERICENTER":266.5812,"MEAN_ANOMALY":93.498,"EPHEMERIS_TYPE":0,"CLASSIFICATION_TYPE":"U","NORAD_CAT_ID":55741,"ELEMENT_SET_NO":999,"REV_AT_EPOCH":15498,"BSTAR":4.8167191e-5,"MEAN_MOTION_DOT":4.82e-6,"MEAN_MOTION_DDOT":0},{"OBJECT_NAME":"STARLINK-5594","OBJECT_ID":"2023-028B","EPOCH":"2025-12-24T15:09:10.171872","MEAN_MOTION":14.98331179,"ECCENTRICITY":0.00033704,"INCLINATION":69.9999,"RA_OF_ASC_NODE":73.8474,"ARG_OF_PERICENTER":268.7611,"MEAN_ANOMALY":91.3162,"EPHEMERIS_TYPE":0,"CLASSIFICATION_TYPE":"U","NORAD_CAT_ID":55742,"ELEMENT_SET_NO":999,"REV_AT_EPOCH":15479,"BSTAR":6.5120669e-5,"MEAN_MOTION_DOT":6.84e-6,"MEAN_MOTION_DDOT":0},{"OBJECT_NAME":"STARLINK-5602","OBJECT_ID":"2023-028C","EPOCH":"2025-12-24T15:15:12.722688","MEAN_MOTION":14.98308546,"ECCENTRICITY":0.00028562,"INCLINATION":70.0008,"RA_OF_ASC_NODE":73.8623,"ARG_OF_PERICENTER":272.1986,"MEAN_ANOMALY":87.8846,"EPHEMERIS_TYPE":0,"CLASSIFICATION_TYPE":"U","NORAD_CAT_ID":55743,"ELEMENT_SET_NO":999,"REV_AT_EPOCH":15479,"BSTAR":0.00017187363,"MEAN_MOTION_DOT":1.957e-5,"MEAN_MOTION_DDOT":0},{"OBJECT_NAME":"STARLINK-5601","OBJECT_ID":"2023-028D","EPOCH":"2025-12-24T15:09:24.393312","MEAN_MOTION":14.98334888,"ECCENTRICITY":0.00032504,"INCLINATION":69.9997,"RA_OF_ASC_NODE":73.8473,"ARG_OF_PERICENTER":268.8202,"MEAN_ANOMALY":91.2584,"EPHEMERIS_TYPE":0,"CLASSIFICATION_TYPE":"U","NORAD_CAT_ID":55744,"ELEMENT_SET_NO":999,"REV_AT_EPOCH":15479,"BSTAR":3.8047118e-5,"MEAN_MOTION_DOT":3.61e-6,"MEAN_MOTION_DDOT":0},{"OBJECT_NAME":"STARLINK-5579","OBJECT_ID":"2023-028F","EPOCH":"2025-12-24T16:03:13.690944","MEAN_MOTION":14.98333967,"ECCENTRICITY":0.00033993,"INCLINATION":69.9995,"RA_OF_ASC_NODE":73.5765,"ARG_OF_PERICENTER":268.8519,"MEAN_ANOMALY":91.225,"EPHEMERIS_TYPE":0,"CLASSIFICATION_TYPE":"U","NORAD_CAT_ID":55746,"ELEMENT_SET_NO":999,"REV_AT_EPOCH":15480,"BSTAR":6.15565e-7,"MEAN_MOTION_DOT":-8.6e-7,"MEAN_MOTION_DDOT":0}]
